ONEWEB-0615             
1 54676U 22166AL  25208.81703247 -.00000046  00000+0 -14275-3 0  9997
2 54676  87.9274 308.7017 0002011  99.6865 260.4496 13.21826414128598
ONEWEB-0655             
1 54677U 22166AM  25208.79021084  .00000026  00000+0  31638-4 0  9996
2 54677  87.9275 308.7122 0002304 101.8210 258.3182 13.21823616128580
ONEWEB-0659             
1 54678U 22166AN  25208.80756782 -.00000014  00000+0 -66160-4 0  9996
2 54678  87.9274 308.7097 0001850  97.4860 262.6484 13.21825524128670
ONEWEB-0685             
1 54679U 22166AP  25208.73345677 -.00000004  00000+0 -40424-4 0  9990
2 54679  87.9274 308.7196 0002051 108.1405 251.9953 13.21825209128559
ONEWEB-0712             
1 54680U 22166AQ  25208.78098534  .00000008  00000+0 -13419-4 0  9991
2 54680  87.9051 293.4257 0002634  97.7763 262.3667 13.16595429129370
ONEWEB-0714             
1 54681U 22166AR  25208.81545673 -.00000014  00000+0 -66115-4 0  9996
2 54681  87.9278 308.6965 0002134 105.0237 255.1133 13.21826183128682
ONEWEB-0532             
1 55140U 23004A   25208.93776824  .00000016  00000+0  89807-5 0  9990
2 55140  87.9041  70.3951 0001367  88.9322 271.1966 13.17649468124884
ONEWEB-0533             
1 55141U 23004B   25208.83957782 -.00000328  00000+0 -94636-3 0  9996
2 55141  87.8861  55.1444 0001885  91.1485 268.9859 13.12443758125518
ONEWEB-0541             
1 55142U 23004C   25208.69212235 -.00000455  00000+0 -13200-2 0  9996
2 55142  87.8816  85.7250 0001770  78.6304 281.5023 13.11418358123414
ONEWEB-0543             
1 55143U 23004D   25208.86764188  .00000074  00000+0  15467-3 0  9998
2 55143  87.9108  39.9435 0002110  88.5455 271.5918 13.18688650126957
ONEWEB-0544             
1 55144U 23004E   25208.78516330  .00000044  00000+0  78631-4 0  9994
2 55144  87.9110  39.9500 0001945  82.4386 277.6967 13.18686298126941
ONEWEB-0560             
1 55145U 23004F   25208.93031722  .00000058  00000+0  11323-3 0  9998
2 55145  87.9116  39.8962 0001948  80.7132 279.4220 13.18684569126976
ONEWEB-0565             
1 55146U 23004G   25208.92373265  .00000039  00000+0  65008-4 0  9998
2 55146  87.9108  39.9551 0001463  73.5481 286.5812 13.18686429126964
ONEWEB-0567             
1 55147U 23004H   25208.91713704  .00000002  00000+0 -27986-4 0  9998
2 55147  87.9115  39.9137 0001708  75.8558 284.2764 13.18686750126963
ONEWEB-0569             
1 55148U 23004J   25208.87245900  .00000261  00000+0  67972-3 0  9996
2 55148  87.8965  24.6329 0002125  63.2653 296.8693 13.13468792127602
ONEWEB-0570             
1 55149U 23004K   25208.90722283 -.00000002  00000+0 -38057-4 0  9993
2 55149  87.9110  39.9180 0001184  91.4780 268.6487 13.18690437126951
ONEWEB-0571             
1 55150U 23004L   25208.90063308  .00000042  00000+0  73148-4 0  9993
2 55150  87.9107  39.9258 0001693  46.1909 313.9363 13.18686496126968
