[{"OBJECT_NAME":"ONEWEB-0615","OBJECT_ID":"2022-166AL","EPOCH":"2025-07-27T19:36:31.605408","MEAN_MOTION":13.21826414,"ECCENTRICITY":0.0002011,"INCLINATION":87.9274,"RA_OF_ASC_NODE":308.7017,"ARG_OF_PERICENTER":99.6865,"MEAN_ANOMALY":260.4496,"EPHEMERIS_TYPE":0,"CLASSIFICATION_TYPE":"U","NORAD_CAT_ID":54676,"ELEMENT_SET_NO":999,"REV_AT_EPOCH":12859,"BSTAR":-0.00014275,"MEAN_MOTION_DOT":-4.6e-7,"MEAN_MOTION_DDOT":0},{"OBJECT_NAME":"ONEWEB-0655","OBJECT_ID":"2022-166AM","EPOCH":"2025-07-27T18:57:54.216576","MEAN_MOTION":13.21823616,"ECCENTRICITY":0.0002304,"INCLINATION":87.9275,"RA_OF_ASC_NODE":308.7122,"ARG_OF_PERICENTER":101.821,"MEAN_ANOMALY":258.3182,"EPHEMERIS_TYPE":0,"CLASSIFICATION_TYPE":"U","NORAD_CAT_ID":54677,"ELEMENT_SET_NO":999,"REV_AT_EPOCH":12858,"BSTAR":3.1638e-5,"MEAN_MOTION_DOT":2.6e-7,"MEAN_MOTION_DDOT":0},{"OBJECT_NAME":"ONEWEB-0659","OBJECT_ID":"2022-166AN","EPOCH":"2025-07-27T19:22:53.859648","MEAN_MOTION":13.21825524,"ECCENTRICITY":0.000185,"INCLINATION":87.9274,"RA_OF_ASC_NODE":308.7097,"ARG_OF_PERICENTER":97.486,"MEAN_ANOMALY":262.6484,"EPHEMERIS_TYPE":0,"CLASSIFICATION_TYPE":"U","NORAD_CAT_ID":54678,"ELEMENT_SET_NO":999,"REV_AT_EPOCH":12867,"BSTAR":-6.616e-5,"MEAN_MOTION_DOT":-1.4e-7,"MEAN_MOTION_DDOT":0},{"OBJECT_NAME":"ONEWEB-0685","OBJECT_ID":"2022-166AP","EPOCH":"2025-07-27T17:36:10.664928","MEAN_MOTION":13.21825209,"ECCENTRICITY":0.0002051,"INCLINATION":87.9274,"RA_OF_ASC_NODE":308.7196,"ARG_OF_PERICENTER":108.1405,"MEAN_ANOMALY":251.9953,"EPHEMERIS_TYPE":0,"CLASSIFICATION_TYPE":"U","NORAD_CAT_ID":54679,"ELEMENT_SET_NO":999,"REV_AT_EPOCH":12855,"BSTAR":-4.0424e-5,"MEAN_MOTION_DOT":-4.0e-8,"MEAN_MOTION_DDOT":0},{"OBJECT_NAME":"ONEWEB-0712","OBJECT_ID":"2022-166AQ","EPOCH":"2025-07-27T18:44:37.133376","MEAN_MOTION":13.16595429,"ECCENTRICITY":0.0002634,"INCLINATION":87.9051,"RA_OF_ASC_NODE":293.4257,"ARG_OF_PERICENTER":97.7763,"MEAN_ANOMALY":262.3667,"EPHEMERIS_TYPE":0,"CLASSIFICATION_TYPE":"U","NORAD_CAT_ID":54680,"ELEMENT_SET_NO":999,"REV_AT_EPOCH":12937,"BSTAR":-1.3419e-5,"MEAN_MOTION_DOT":8.0e-8,"MEAN_MOTION_DDOT":0},{"OBJECT_NAME":"ONEWEB-0714","OBJECT_ID":"2022-166AR","EPOCH":"2025-07-27T19:34:15.461472","MEAN_MOTION":13.21826183,"ECCENTRICITY":0.0002134,"INCLINATION":87.9278,"RA_OF_ASC_NODE":308.6965,"ARG_OF_PERICENTER":105.0237,"MEAN_ANOMALY":255.1133,"EPHEMERIS_TYPE":0,"CLASSIFICATION_TYPE":"U","NORAD_CAT_ID":54681,"ELEMENT_SET_NO":999,"REV_AT_EPOCH":12868,"BSTAR":-6.6115e-5,"MEAN_MOTION_DOT":-1.4e-7,"MEAN_MOTION_DDOT":0},{"OBJECT_NAME":"ONEWEB-0532","OBJECT_ID":"2023-004A","EPOCH":"2025-07-27T22:30:23.175936","MEAN_MOTION":13.17649468,"ECCENTRICITY":0.0001367,"INCLINATION":87.9041,"RA_OF_ASC_NODE":70.3951,"ARG_OF_PERICENTER":88.9322,"MEAN_ANOMALY":271.1966,"EPHEMERIS_TYPE":0,"CLASSIFICATION_TYPE":"U","NORAD_CAT_ID":55140,"ELEMENT_SET_NO":999,"REV_AT_EPOCH":12488,"BSTAR":8.9807e-6,"MEAN_MOTION_DOT":1.6e-7,"MEAN_MOTION_DDOT":0},{"OBJECT_NAME":"ONEWEB-0533","OBJECT_ID":"2023-004B","EPOCH":"2025-07-27T20:08:59.523648","MEAN_MOTION":13.12443758,"ECCENTRICITY":0.0001885,"INCLINATION":87.8861,"RA_OF_ASC_NODE":55.1444,"ARG_OF_PERICENTER":91.1485,"MEAN_ANOMALY":268.9859,"EPHEMERIS_TYPE":0,"CLASSIFICATION_TYPE":"U","NORAD_CAT_ID":55141,"ELEMENT_SET_NO":999,"REV_AT_EPOCH":12551,"BSTAR":-0.00094636,"MEAN_MOTION_DOT":-3.28e-6,"MEAN_MOTION_DDOT":0},{"OBJECT_NAME":"ONEWEB-0541","OBJECT_ID":"2023-004C","EPOCH":"2025-07-27T16:36:39.371040","MEAN_MOTION":13.11418358,"ECCENTRICITY":0.000177,"INCLINATION":87.8816,"RA_OF_ASC_NODE":85.725,"ARG_OF_PERICENTER":78.6304,"MEAN_ANOMALY":281.5023,"EPHEMERIS_TYPE":0,"CLASSIFICATION_TYPE":"U","NORAD_CAT_ID":55142,"ELEMENT_SET_NO":999,"REV_AT_EPOCH":12341,"BSTAR":-0.00132,"MEAN_MOTION_DOT":-4.55e-6,"MEAN_MOTION_DDOT":0},{"OBJECT_NAME":"ONEWEB-0543","OBJECT_ID":"2023-004D","EPOCH":"2025-07-27T20:49:24.258432","MEAN_MOTION":13.1868865,"ECCENTRICITY":0.000211,"INCLINATION":87.9108,"RA_OF_ASC_NODE":39.9435,"ARG_OF_PERICENTER":88.5455,"MEAN_ANOMALY":271.5918,"EPHEMERIS_TYPE":0,"CLASSIFICATION_TYPE":"U","NORAD_CAT_ID":55143,"ELEMENT_SET_NO":999,"REV_AT_EPOCH":12695,"BSTAR":0.00015467,"MEAN_MOTION_DOT":7.4e-7,"MEAN_MOTION_DDOT":0},{"OBJECT_NAME":"ONEWEB-0544","OBJECT_ID":"2023-004E","EPOCH":"2025-07-27T18:50:38.109120","MEAN_MOTION":13.18686298,"ECCENTRICITY":0.0001945,"INCLINATION":87.911,"RA_OF_ASC_NODE":39.95,"ARG_OF_PERICENTER":82.4386,"MEAN_ANOMALY":277.6967,"EPHEMERIS_TYPE":0,"CLASSIFICATION_TYPE":"U","NORAD_CAT_ID":55144,"ELEMENT_SET_NO":999,"REV_AT_EPOCH":12694,"BSTAR":7.8631e-5,"MEAN_MOTION_DOT":4.4e-7,"MEAN_MOTION_DDOT":0},{"OBJECT_NAME":"ONEWEB-0560","OBJECT_ID":"2023-004F","EPOCH":"2025-07-27T22:19:39.407808","MEAN_MOTION":13.18684569,"ECCENTRICITY":0.0001948,"INCLINATION":87.9116,"RA_OF_ASC_NODE":39.8962,"ARG_OF_PERICENTER":80.7132,"MEAN_ANOMALY":279.422,"EPHEMERIS_TYPE":0,"CLASSIFICATION_TYPE":"U","NORAD_CAT_ID":55145,"ELEMENT_SET_NO":999,"REV_AT_EPOCH":12697,"BSTAR":0.00011323,"MEAN_MOTION_DOT":5.8e-7,"MEAN_MOTION_DDOT":0},{"OBJECT_NAME":"ONEWEB-0565","OBJECT_ID":"2023-004G","EPOCH":"2025-07-27T22:10:10.500960","MEAN_MOTION":13.18686429,"ECCENTRICITY":0.0001463,"INCLINATION":87.9108,"RA_OF_ASC_NODE":39.9551,"ARG_OF_PERICENTER":73.5481,"MEAN_ANOMALY":286.5812,"EPHEMERIS_TYPE":0,"CLASSIFICATION_TYPE":"U","NORAD_CAT_ID":55146,"ELEMENT_SET_NO":999,"REV_AT_EPOCH":12696,"BSTAR":6.5008e-5,"MEAN_MOTION_DOT":3.9e-7,"MEAN_MOTION_DDOT":0},{"OBJECT_NAME":"ONEWEB-0567","OBJECT_ID":"2023-004H","EPOCH":"2025-07-27T22:00:40.640256","MEAN_MOTION":13.1868675,"ECCENTRICITY":0.0001708,"INCLINATION":87.9115,"RA_OF_ASC_NODE":39.9137,"ARG_OF_PERICENTER":75.8558,"MEAN_ANOMALY":284.2764,"EPHEMERIS_TYPE":0,"CLASSIFICATION_TYPE":"U","NORAD_CAT_ID":55147,"ELEMENT_SET_NO":999,"REV_AT_EPOCH":12696,"BSTAR":-2.7986e-5,"MEAN_MOTION_DOT":2.0e-8,"MEAN_MOTION_DDOT":0},{"OBJECT_NAME":"ONEWEB-0569","OBJECT_ID":"2023-004J","EPOCH":"2025-07-27T20:56:20.457600","MEAN_MOTION":13.13468792,"ECCENTRICITY":0.0002125,"INCLINATION":87.8965,"RA_OF_ASC_NODE":24.6329,"ARG_OF_PERICENTER":63.2653,"MEAN_ANOMALY":296.8693,"EPHEMERIS_TYPE":0,"CLASSIFICATION_TYPE":"U","NORAD_CAT_ID":55148,"ELEMENT_SET_NO":999,"REV_AT_EPOCH":12760,"BSTAR":0.00067972,"MEAN_MOTION_DOT":2.61e-6,"MEAN_MOTION_DDOT":0},{"OBJECT_NAME":"ONEWEB-0570","OBJECT_ID":"2023-004K","EPOCH":"2025-07-27T21:46:24.052512","MEAN_MOTION":13.18690437,"ECCENTRICITY":0.0001184,"INCLINATION":87.911,"RA_OF_ASC_NODE":39.918,"ARG_OF_PERICENTER":91.478,"MEAN_ANOMALY":268.6487,"EPHEMERIS_TYPE":0,"CLASSIFICATION_TYPE":"U","NORAD_CAT_ID":55149,"ELEMENT_SET_NO":999,"REV_AT_EPOCH":12695,"BSTAR":-3.8057e-5,"MEAN_MOTION_DOT":-2.0e-8,"MEAN_MOTION_DDOT":0},{"OBJECT_NAME":"ONEWEB-0571","OBJECT_ID":"2023-004L","EPOCH":"2025-07-27T21:36:54.698112","MEAN_MOTION":13.18686496,"ECCENTRICITY":0.0001693,"INCLINATION":87.9107,"RA_OF_ASC_NODE":39.9258,"ARG_OF_PERICENTER":46.1909,"MEAN_ANOMALY":313.9363,"EPHEMERIS_TYPE":0,"CLASSIFICATION_TYPE":"U","NORAD_CAT_ID":55150,"ELEMENT_SET_NO":999,"REV_AT_EPOCH":12696,"BSTAR":7.3148e-5,"MEAN_MOTION_DOT":4.2e-7,"MEAN_MOTION_DDOT":0}]
